*******************************************************************************
Ephemeris / WWW_USER Mon Mar 10 07:20:18 2025 Pasadena, USA      / Horizons    
*******************************************************************************
Target body name: (2018 PC20)                     {source: JPL#4}
Center body name: Earth (399)                     {source: DE441}
Center-site name: Mauna Kea
*******************************************************************************
Start time      : A.D. 2019-Jan-08 04:08:00.0000 UT      
Stop  time      : A.D. 2019-Jan-08 16:48:00.0000 UT      
Step-size       : 1 minutes
*******************************************************************************
Target pole/equ : undefined
Target radii    : undefined                                                    
Center geodetic : 204.5278, 19.8260847, 4.21024   {E-lon(deg),Lat(deg),Alt(km)}
Center cylindric: 204.5278, 6006.35451, 2151.0229 {E-lon(deg),Dxy(km),Dz(km)}
Center pole/equ : ITRF93                          {East-longitude positive}
Center radii    : 6378.137, 6378.137, 6356.752 km {Equator_a, b, pole_c}       
Target primary  : Sun
Vis. interferer : MOON (R_eq= 1737.400) km        {source: DE441}
Rel. light bend : Sun                             {source: DE441}
Rel. lght bnd GM: 1.3271E+11 km^3/s^2                                          
Small-body perts: Yes                             {source: SB441-N16}
Atmos refraction: NO (AIRLESS)
RA format       : HMS
Time format     : CAL 
Calendar mode   : Mixed Julian/Gregorian
RTS-only print  : NO       
EOP file        : eop.250307.p250603                                           
EOP coverage    : DATA-BASED 1962-JAN-20 TO 2025-MAR-07. PREDICTS-> 2025-JUN-02
Units conversion: 1 au= 149597870.700 km, c= 299792.458 km/s, 1 day= 86400.0 s 
Table cut-offs 1: Elevation (-90.0deg=NO ),Airmass (>38.000=NO), Daylight (YES)
Table cut-offs 2: Solar elongation (  0.0,180.0=NO ),Local Hour Angle( 0.0=NO )
Table cut-offs 3: RA/DEC angular rate (     0.0=NO )                           
*******************************************************************************
Initial IAU76/J2000 heliocentric ecliptic osculating elements (au, days, deg.):
  EPOCH=  2458343.5 ! 2018-Aug-13.00 (TDB)         Residual RMS= .24519        
   EC= .404352607301711    QR= 1.018354806317198   TP= 2458318.6524357731      
   OM= 139.299704166656    W=  153.5303944744985   IN= 8.986086735514593       
  Equivalent ICRF heliocentric cartesian coordinates (au, au/d):
   X= 8.116079301925467E-01  Y=-6.140581064636024E-01  Z=-2.698058679324596E-01
  VX= 1.436448164656351E-02 VY= 1.329561442287599E-02 VZ= 2.429594529488231E-03
Asteroid physical parameters (km, seconds, rotational period in hours):        
   GM= n.a.                RAD= n.a.               ROTPER= n.a.                
   H= 25.2                 G= .150                 B-V= n.a.                   
                           ALBEDO= n.a.            STYP= n.a.                  
*******************************************************************************
 Date__(UT)__HR:MN     R.A._________(ICRF)_________DEC
******************************************************
$$SOE
 2019-Jan-08 08:14     01 37 34.184824 -01 50 59.42359
 2019-Jan-08 08:15     01 37 34.243570 -01 50 58.81351
 2019-Jan-08 08:16     01 37 34.302321 -01 50 58.20344
 2019-Jan-08 08:17     01 37 34.361079 -01 50 57.59336
 2019-Jan-08 08:18     01 37 34.419842 -01 50 56.98328
 2019-Jan-08 08:19     01 37 34.478612 -01 50 56.37320
 2019-Jan-08 08:20     01 37 34.537387 -01 50 55.76312
 2019-Jan-08 08:21     01 37 34.596169 -01 50 55.15304
 2019-Jan-08 08:22     01 37 34.654956 -01 50 54.54297
 2019-Jan-08 08:23     01 37 34.713749 -01 50 53.93289
 2019-Jan-08 08:24     01 37 34.772549 -01 50 53.32281
 2019-Jan-08 08:25     01 37 34.831354 -01 50 52.71273
 2019-Jan-08 08:26     01 37 34.890166 -01 50 52.10265
 2019-Jan-08 08:27     01 37 34.948983 -01 50 51.49258
 2019-Jan-08 08:28     01 37 35.007807 -01 50 50.88250
 2019-Jan-08 08:29     01 37 35.066636 -01 50 50.27242
 2019-Jan-08 08:30     01 37 35.125472 -01 50 49.66234
 2019-Jan-08 08:31     01 37 35.184314 -01 50 49.05226
 2019-Jan-08 08:32     01 37 35.243162 -01 50 48.44219
 2019-Jan-08 08:33     01 37 35.302017 -01 50 47.83211
 2019-Jan-08 08:34     01 37 35.360877 -01 50 47.22203
 2019-Jan-08 08:35     01 37 35.419744 -01 50 46.61195
 2019-Jan-08 08:36     01 37 35.478617 -01 50 46.00188
 2019-Jan-08 08:37     01 37 35.537496 -01 50 45.39180
 2019-Jan-08 08:38     01 37 35.596382 -01 50 44.78172
 2019-Jan-08 08:39     01 37 35.655274 -01 50 44.17165
 2019-Jan-08 08:40     01 37 35.714172 -01 50 43.56157
 2019-Jan-08 08:41     01 37 35.773076 -01 50 42.95149
 2019-Jan-08 08:42     01 37 35.831987 -01 50 42.34142
 2019-Jan-08 08:43     01 37 35.890904 -01 50 41.73134
 2019-Jan-08 08:44     01 37 35.949828 -01 50 41.12127
 2019-Jan-08 08:45     01 37 36.008758 -01 50 40.51119
 2019-Jan-08 08:46     01 37 36.067694 -01 50 39.90112
 2019-Jan-08 08:47     01 37 36.126637 -01 50 39.29104
 2019-Jan-08 08:48     01 37 36.185586 -01 50 38.68097
 2019-Jan-08 08:49     01 37 36.244541 -01 50 38.07090
 2019-Jan-08 08:50     01 37 36.303503 -01 50 37.46082
 2019-Jan-08 08:51     01 37 36.362472 -01 50 36.85075
 2019-Jan-08 08:52     01 37 36.421447 -01 50 36.24068
 2019-Jan-08 08:53     01 37 36.480429 -01 50 35.63061
 2019-Jan-08 08:54     01 37 36.539417 -01 50 35.02053
 2019-Jan-08 08:55     01 37 36.598411 -01 50 34.41046
 2019-Jan-08 08:56     01 37 36.657413 -01 50 33.80039
 2019-Jan-08 08:57     01 37 36.716420 -01 50 33.19032
 2019-Jan-08 08:58     01 37 36.775435 -01 50 32.58025
 2019-Jan-08 08:59     01 37 36.834456 -01 50 31.97018
 2019-Jan-08 09:00     01 37 36.893483 -01 50 31.36011
 2019-Jan-08 09:01     01 37 36.952517 -01 50 30.75005
 2019-Jan-08 09:02     01 37 37.011558 -01 50 30.13998
 2019-Jan-08 09:03     01 37 37.070606 -01 50 29.52991
 2019-Jan-08 09:04     01 37 37.129660 -01 50 28.91984
 2019-Jan-08 09:05     01 37 37.188721 -01 50 28.30978
 2019-Jan-08 09:06     01 37 37.247789 -01 50 27.69971
 2019-Jan-08 09:07     01 37 37.306863 -01 50 27.08965
 2019-Jan-08 09:08     01 37 37.365944 -01 50 26.47958
 2019-Jan-08 09:09     01 37 37.425032 -01 50 25.86952
 2019-Jan-08 09:10     01 37 37.484126 -01 50 25.25945
 2019-Jan-08 09:11     01 37 37.543228 -01 50 24.64939
 2019-Jan-08 09:12     01 37 37.602336 -01 50 24.03933
 2019-Jan-08 09:13     01 37 37.661451 -01 50 23.42927
 2019-Jan-08 09:14     01 37 37.720573 -01 50 22.81921
 2019-Jan-08 09:15     01 37 37.779701 -01 50 22.20915
 2019-Jan-08 09:16     01 37 37.838837 -01 50 21.59909
 2019-Jan-08 09:17     01 37 37.897979 -01 50 20.98903
 2019-Jan-08 09:18     01 37 37.957128 -01 50 20.37897
 2019-Jan-08 09:19     01 37 38.016284 -01 50 19.76891
 2019-Jan-08 09:20     01 37 38.075447 -01 50 19.15886
 2019-Jan-08 09:21     01 37 38.134617 -01 50 18.54880
 2019-Jan-08 09:22     01 37 38.193793 -01 50 17.93874
 2019-Jan-08 09:23     01 37 38.252977 -01 50 17.32869
 2019-Jan-08 09:24     01 37 38.312167 -01 50 16.71864
 2019-Jan-08 09:25     01 37 38.371365 -01 50 16.10858
 2019-Jan-08 09:26     01 37 38.430569 -01 50 15.49853
 2019-Jan-08 09:27     01 37 38.489781 -01 50 14.88848
 2019-Jan-08 09:28     01 37 38.548999 -01 50 14.27843
 2019-Jan-08 09:29     01 37 38.608224 -01 50 13.66838
 2019-Jan-08 09:30     01 37 38.667457 -01 50 13.05833
 2019-Jan-08 09:31     01 37 38.726696 -01 50 12.44829
 2019-Jan-08 09:32     01 37 38.785943 -01 50 11.83824
 2019-Jan-08 09:33     01 37 38.845196 -01 50 11.22819
 2019-Jan-08 09:34     01 37 38.904457 -01 50 10.61815
 2019-Jan-08 09:35     01 37 38.963724 -01 50 10.00811
 2019-Jan-08 09:36     01 37 39.022999 -01 50 09.39806
 2019-Jan-08 09:37     01 37 39.082280 -01 50 08.78802
 2019-Jan-08 09:38     01 37 39.141569 -01 50 08.17798
 2019-Jan-08 09:39     01 37 39.200865 -01 50 07.56794
 2019-Jan-08 09:40     01 37 39.260168 -01 50 06.95790
 2019-Jan-08 09:41     01 37 39.319478 -01 50 06.34786
 2019-Jan-08 09:42     01 37 39.378795 -01 50 05.73783
 2019-Jan-08 09:43     01 37 39.438119 -01 50 05.12779
 2019-Jan-08 09:44     01 37 39.497451 -01 50 04.51776
 2019-Jan-08 09:45     01 37 39.556789 -01 50 03.90772
 2019-Jan-08 09:46     01 37 39.616135 -01 50 03.29769
 2019-Jan-08 09:47     01 37 39.675488 -01 50 02.68766
 2019-Jan-08 09:48     01 37 39.734848 -01 50 02.07763
 2019-Jan-08 09:49     01 37 39.794216 -01 50 01.46760
 2019-Jan-08 09:50     01 37 39.853590 -01 50 00.85757
 2019-Jan-08 09:51     01 37 39.912972 -01 50 00.24755
 2019-Jan-08 09:52     01 37 39.972360 -01 49 59.63752
 2019-Jan-08 09:53     01 37 40.031757 -01 49 59.02750
 2019-Jan-08 09:54     01 37 40.091160 -01 49 58.41747
 2019-Jan-08 09:55     01 37 40.150570 -01 49 57.80745
 2019-Jan-08 09:56     01 37 40.209988 -01 49 57.19743
 2019-Jan-08 09:57     01 37 40.269413 -01 49 56.58741
 2019-Jan-08 09:58     01 37 40.328845 -01 49 55.97739
 2019-Jan-08 09:59     01 37 40.388285 -01 49 55.36738
 2019-Jan-08 10:00     01 37 40.447732 -01 49 54.75736
 2019-Jan-08 10:01     01 37 40.507186 -01 49 54.14735
 2019-Jan-08 10:02     01 37 40.566647 -01 49 53.53734
 2019-Jan-08 10:03     01 37 40.626116 -01 49 52.92732
 2019-Jan-08 10:04     01 37 40.685592 -01 49 52.31731
 2019-Jan-08 10:05     01 37 40.745075 -01 49 51.70731
 2019-Jan-08 10:06     01 37 40.804565 -01 49 51.09730
 2019-Jan-08 10:07     01 37 40.864063 -01 49 50.48729
 2019-Jan-08 10:08     01 37 40.923568 -01 49 49.87729
 2019-Jan-08 10:09     01 37 40.983081 -01 49 49.26729
 2019-Jan-08 10:10     01 37 41.042600 -01 49 48.65728
 2019-Jan-08 10:11     01 37 41.102128 -01 49 48.04728
 2019-Jan-08 10:12     01 37 41.161662 -01 49 47.43729
 2019-Jan-08 10:13     01 37 41.221204 -01 49 46.82729
 2019-Jan-08 10:14     01 37 41.280753 -01 49 46.21729
 2019-Jan-08 10:15     01 37 41.340309 -01 49 45.60730
 2019-Jan-08 10:16     01 37 41.399873 -01 49 44.99731
